FENGYUN 1C DEB          
1 32311U 99025CXC 17346.28338490  .00000856  00000-0  13104-2 0  9993
2 32311 101.7507 154.1398 0424464  75.9591 288.8319 13.24258410502886
